{"type": "FeatureCollection", "features": [ {"type": "Feature", "properties": {"norad_id": 43622, "name": "BEIDOU-3 M13 (C32)", "group": "beidou", "lat": -5.096300386273864, "lon": 65.5344396294284, "alt_km": 21520.034764263644, "timestamp": "2025-12-09T23:33:24.119759+00:00", "meta": {"OBJECT_NAME": "BEIDOU-3 M13 (C32)", "OBJECT_ID": "2018-072A", "EPOCH": "2025-12-09T10:53:18.929184", "MEAN_MOTION": 1.86230678, "ECCENTRICITY": 0.00056167, "INCLINATION": 56.4562, "RA_OF_ASC_NODE": 68.9299, "ARG_OF_PERICENTER": 299.0719, "MEAN_ANOMALY": 60.8948, "EPHEMERIS_TYPE": 0, "CLASSIFICATION_TYPE": "U", "NORAD_CAT_ID": 43622, "ELEMENT_SET_NO": 999, "REV_AT_EPOCH": 4912, "BSTAR": 0, "MEAN_MOTION_DOT": -4.9e-07, "MEAN_MOTION_DDOT": 0}, "tle": {"line1": "1 43622U 18072A   25343.45369131 -.00000049  00000+0  00000+0 0  9996", "line2": "2 43622  56.4562  68.9299 0005616 299.0719  60.8948  1.86230678 49127"}}, "geometry": {"type": "Point", "coordinates": [65.5344396294284, -5.096300386273864]}}, {"type": "Feature", "properties": {"norad_id": 43623, "name": "BEIDOU-3 M14 (C33)", "group": "beidou", "lat": 56.02656445609283, "lon": 148.36278392254147, "alt_km": 21524.458270901425, "timestamp": "2025-12-09T23:33:24.119770+00:00", "meta": {"OBJECT_NAME": "BEIDOU-3 M14 (C33)", "OBJECT_ID": "2018-072B", "EPOCH": "2025-12-09T07:39:35.322912", "MEAN_MOTION": 1.86230627, "ECCENTRICITY": 0.0003205, "INCLINATION": 56.458, "RA_OF_ASC_NODE": 68.9278, "ARG_OF_PERICENTER": 335.7988, "MEAN_ANOMALY": 24.209, "EPHEMERIS_TYPE": 0, "CLASSIFICATION_TYPE": "U", "NORAD_CAT_ID": 43623, "ELEMENT_SET_NO": 999, "REV_AT_EPOCH": 4911, "BSTAR": 0, "MEAN_MOTION_DOT": -4.8e-07, "MEAN_MOTION_DDOT": 0}, "tle": {"line1": "1 43623U 18072B   25343.31915883 -.00000048  00000+0  00000+0 0  9992", "line2": "2 43623  56.4580  68.9278 0003205 335.7988  24.2090  1.86230627 49118"}}, "geometry": {"type": "Point", "coordinates": [148.36278392254147, 56.02656445609283]}}, {"type": "Feature", "properties": {"norad_id": 43647, "name": "BEIDOU-3 M16 (C35)", "group": "beidou", "lat": -17.524521372851655, "lon": -66.5320377902089, "alt_km": 21515.341835309613, "timestamp": "2025-12-09T23:33:24.119782+00:00", "meta": {"OBJECT_NAME": "BEIDOU-3 M16 (C35)", "OBJECT_ID": "2018-078A", "EPOCH": "2025-12-08T22:33:41.935680", "MEAN_MOTION": 1.86232209, "ECCENTRICITY": 0.0007116, "INCLINATION": 54.2656, "RA_OF_ASC_NODE": 306.6541, "ARG_OF_PERICENTER": 19.0293, "MEAN_ANOMALY": 340.9862, "EPHEMERIS_TYPE": 0, "CLASSIFICATION_TYPE": "U", "NORAD_CAT_ID": 43647, "ELEMENT_SET_NO": 999, "REV_AT_EPOCH": 4861, "BSTAR": 0, "MEAN_MOTION_DOT": -7.5e-07, "MEAN_MOTION_DDOT": 0}, "tle": {"line1": "1 43647U 18078A   25342.94006870 -.00000075  00000+0  00000+0 0  9999", "line2": "2 43647  54.2656 306.6541 0007116  19.0293 340.9862  1.86232209 48612"}}, "geometry": {"type": "Point", "coordinates": [-66.5320377902089, -17.524521372851655]}}, {"type": "Feature", "properties": {"norad_id": 43648, "name": "BEIDOU-3 M15 (C34)", "group": "beidou", "lat": -50.38311556136861, "lon": -173.02627051611628, "alt_km": 21539.412090821283, "timestamp": "2025-12-09T23:33:24.119794+00:00", "meta": {"OBJECT_NAME": "BEIDOU-3 M15 (C34)", "OBJECT_ID": "2018-078B", "EPOCH": "2025-12-09T01:39:46.541952", "MEAN_MOTION": 1.8623188, "ECCENTRICITY": 0.00035968, "INCLINATION": 54.2613, "RA_OF_ASC_NODE": 306.6503, "ARG_OF_PERICENTER": 17.7285, "MEAN_ANOMALY": 342.2733, "EPHEMERIS_TYPE": 0, "CLASSIFICATION_TYPE": "U", "NORAD_CAT_ID": 43648, "ELEMENT_SET_NO": 999, "REV_AT_EPOCH": 4863, "BSTAR": 0, "MEAN_MOTION_DOT": -7.5e-07, "MEAN_MOTION_DDOT": 0}, "tle": {"line1": "1 43648U 18078B   25343.06928868 -.00000075  00000+0  00000+0 0  9994", "line2": "2 43648  54.2613 306.6503 0003596  17.7285 342.2733  1.86231880 48636"}}, "geometry": {"type": "Point", "coordinates": [-173.02627051611628, -50.38311556136861]}}, {"type": "Feature", "properties": {"norad_id": 43683, "name": "BEIDOU-3 G1 (C59)", "group": "beidou", "lat": 2.4384247631948432, "lon": -147.57796353891186, "alt_km": 35780.67289336911, "timestamp": "2025-12-09T23:33:24.119806+00:00", "meta": {"OBJECT_NAME": "BEIDOU-3 G1 (C59)", "OBJECT_ID": "2018-085A", "EPOCH": "2025-12-08T17:41:39.231168", "MEAN_MOTION": 1.00272068, "ECCENTRICITY": 0.0001779, "INCLINATION": 2.5974, "RA_OF_ASC_NODE": 103.0581, "ARG_OF_PERICENTER": 62.9114, "MEAN_ANOMALY": 317.2543, "EPHEMERIS_TYPE": 0, "CLASSIFICATION_TYPE": "U", "NORAD_CAT_ID": 43683, "ELEMENT_SET_NO": 999, "REV_AT_EPOCH": 2615, "BSTAR": 0, "MEAN_MOTION_DOT": -2.75e-06, "MEAN_MOTION_DDOT": 0}, "tle": {"line1": "1 43683U 18085A   25342.73725962 -.00000275  00000+0  00000+0 0  9996", "line2": "2 43683   2.5974 103.0581 0001779  62.9114 317.2543  1.00272068 26153"}}, "geometry": {"type": "Point", "coordinates": [-147.57796353891186, 2.4384247631948432]}}, {"type": "Feature", "properties": {"norad_id": 43706, "name": "BEIDOU-3 M17 (C36)", "group": "beidou", "lat": 27.467778013103736, "lon": -13.341423438632539, "alt_km": 21541.57592300566, "timestamp": "2025-12-09T23:33:24.119818+00:00", "meta": {"OBJECT_NAME": "BEIDOU-3 M17 (C36)", "OBJECT_ID": "2018-093A", "EPOCH": "2025-12-07T14:48:21.849120", "MEAN_MOTION": 1.86228285, "ECCENTRICITY": 0.0006281, "INCLINATION": 54.1726, "RA_OF_ASC_NODE": 188.7957, "ARG_OF_PERICENTER": 306.8876, "MEAN_ANOMALY": 53.1241, "EPHEMERIS_TYPE": 0, "CLASSIFICATION_TYPE": "U", "NORAD_CAT_ID": 43706, "ELEMENT_SET_NO": 999, "REV_AT_EPOCH": 4797, "BSTAR": 0, "MEAN_MOTION_DOT": 5.7e-07, "MEAN_MOTION_DDOT": 0}, "tle": {"line1": "1 43706U 18093A   25341.61691955  .00000057  00000+0  00000+0 0  9998", "line2": "2 43706  54.1726 188.7957 0006281 306.8876  53.1241  1.86228285 47972"}}, "geometry": {"type": "Point", "coordinates": [-13.341423438632539, 27.467778013103736]}}, {"type": "Feature", "properties": {"norad_id": 43707, "name": "BEIDOU-3 M18 (C37)", "group": "beidou", "lat": -43.52626219929843, "lon": 52.05295097565489, "alt_km": 21540.537705957493, "timestamp": "2025-12-09T23:33:24.119830+00:00", "meta": {"OBJECT_NAME": "BEIDOU-3 M18 (C37)", "OBJECT_ID": "2018-093B", "EPOCH": "2025-12-09T02:08:32.306784", "MEAN_MOTION": 1.86226655, "ECCENTRICITY": 0.00062934, "INCLINATION": 54.1729, "RA_OF_ASC_NODE": 188.7377, "ARG_OF_PERICENTER": 351.6926, "MEAN_ANOMALY": 8.358, "EPHEMERIS_TYPE": 0, "CLASSIFICATION_TYPE": "U", "NORAD_CAT_ID": 43707, "ELEMENT_SET_NO": 999, "REV_AT_EPOCH": 4799, "BSTAR": 0, "MEAN_MOTION_DOT": 4.9e-07, "MEAN_MOTION_DDOT": 0}, "tle": {"line1": "1 43707U 18093B   25343.08926281  .00000049  00000+0  00000+0 0  9996", "line2": "2 43707  54.1729 188.7377 0006293 351.6926   8.3580  1.86226655 47998"}}, "geometry": {"type": "Point", "coordinates": [52.05295097565489, -43.52626219929843]}}, {"type": "Feature", "properties": {"norad_id": 44204, "name": "BEIDOU-3 IGSO-1 (C38)", "group": "beidou", "lat": 28.648013194029055, "lon": -159.96548740568403, "alt_km": 35761.92518320908, "timestamp": "2025-12-09T23:33:24.119842+00:00", "meta": {"OBJECT_NAME": "BEIDOU-3 IGSO-1 (C38)", "OBJECT_ID": "2019-023A", "EPOCH": "2025-11-19T14:15:02.708640", "MEAN_MOTION": 1.00252177, "ECCENTRICITY": 0.0026966, "INCLINATION": 58.4003, "RA_OF_ASC_NODE": 39.8168, "ARG_OF_PERICENTER": 221.2202, "MEAN_ANOMALY": 126.9723, "EPHEMERIS_TYPE": 0, "CLASSIFICATION_TYPE": "U", "NORAD_CAT_ID": 44204, "ELEMENT_SET_NO": 999, "REV_AT_EPOCH": 510, "BSTAR": 0, "MEAN_MOTION_DOT": -2.26e-06, "MEAN_MOTION_DDOT": 0}, "tle": {"line1": "1 44204U 19023A   25323.59378135 -.00000226  00000+0  00000+0 0  9994", "line2": "2 44204  58.4003  39.8168 0026966 221.2202 126.9723  1.00252177  5102"}}, "geometry": {"type": "Point", "coordinates": [-159.96548740568403, 28.648013194029055]}}, {"type": "Feature", "properties": {"norad_id": 44231, "name": "BEIDOU-2 G8 (C01)", "group": "beidou", "lat": 1.00149229764257, "lon": -143.23859714136572, "alt_km": 35800.76758316337, "timestamp": "2025-12-09T23:33:24.119857+00:00", "meta": {"OBJECT_NAME": "BEIDOU-2 G8 (C01)", "OBJECT_ID": "2019-027A", "EPOCH": "2025-12-09T15:54:49.045824", "MEAN_MOTION": 1.00268412, "ECCENTRICITY": 0.00085684, "INCLINATION": 1.654, "RA_OF_ASC_NODE": 74.6824, "ARG_OF_PERICENTER": 254.8628, "MEAN_ANOMALY": 132.3396, "EPHEMERIS_TYPE": 0, "CLASSIFICATION_TYPE": "U", "NORAD_CAT_ID": 44231, "ELEMENT_SET_NO": 999, "REV_AT_EPOCH": 2418, "BSTAR": 0, "MEAN_MOTION_DOT": -2.45e-06, "MEAN_MOTION_DDOT": 0}, "tle": {"line1": "1 44231U 19027A   25343.66306766 -.00000245  00000+0  00000+0 0  9990", "line2": "2 44231   1.6540  74.6824 0008568 254.8628 132.3396  1.00268412 24181"}}, "geometry": {"type": "Point", "coordinates": [-143.23859714136572, 1.00149229764257]}}, {"type": "Feature", "properties": {"norad_id": 44337, "name": "BEIDOU-3 IGSO-2 (C39)", "group": "beidou", "lat": 25.216753854527568, "lon": 179.63784177545529, "alt_km": 35938.74744629155, "timestamp": "2025-12-09T23:33:24.119869+00:00", "meta": {"OBJECT_NAME": "BEIDOU-3 IGSO-2 (C39)", "OBJECT_ID": "2019-035A", "EPOCH": "2025-12-08T21:18:38.600064", "MEAN_MOTION": 1.00272014, "ECCENTRICITY": 0.0037301, "INCLINATION": 55.2241, "RA_OF_ASC_NODE": 160.5341, "ARG_OF_PERICENTER": 202.3504, "MEAN_ANOMALY": 154.1975, "EPHEMERIS_TYPE": 0, "CLASSIFICATION_TYPE": "U", "NORAD_CAT_ID": 44337, "ELEMENT_SET_NO": 999, "REV_AT_EPOCH": 2375, "BSTAR": 0, "MEAN_MOTION_DOT": -7.9e-07, "MEAN_MOTION_DDOT": 0}, "tle": {"line1": "1 44337U 19035A   25342.88794676 -.00000079  00000+0  00000+0 0  9995", "line2": "2 44337  55.2241 160.5341 0037301 202.3504 154.1975  1.00272014 23758"}}, "geometry": {"type": "Point", "coordinates": [179.63784177545529, 25.216753854527568]}}]}